{"type":"FeatureCollection","features":[{"type":"Feature","properties":{"service":"1"},"geometry":{"type":"MultiLineString","coordinates":[[[-73.9859,40.7575],[-74.001,40.7368],[-74.005,40.7297],[-74.0071,40.7184],[-74.0104,40.714],[-74.0118,40.7125],[-74.0152,40.7044],[-74.0148,40.703],[-74.0129,40.7016]],[[-73.8983,40.8898],[-73.9017,40.8833],[-73.906,40.8773],[-73.9079,40.876],[-73.9136,40.8716],[-73.9195,40.8637],[-73.9241,40.8618],[-73.9252,40.861],[-73.9673,40.8033],[-73.9677,40.8024],[-73.9681,40.8002],[-73.9685,40.7992],[-73.9801,40.7837],[-73.9808,40.7825],[-73.9818,40.7792],[-73.9821,40.7765],[-73.9821,40.7696],[-73.9817,40.7675],[-73.982,40.7656],[-73.9826,40.7639],[-73.9847,40.7605],[-73.9859,40.7575]]]}},{"type":"Feature","properties":{"service":"A"},"geometry":{"type":"MultiLineString","coordinates":[[[-73.9437,40.8256],[-73.9451,40.8236],[-73.9496,40.8142],[-73.9531,40.8101],[-73.953,40.8081],[-73.9533,40.8072],[-74.0024,40.74],[-74.0025,40.7389],[-73.9998,40.7344],[-73.9997,40.7336],[-74.0025,40.7293],[-74.0051,40.723],[-74.0053,40.7185],[-74.01,40.7125],[-74.0102,40.712],[-74.01,40.7116],[-74.0054,40.709],[-74.0006,40.703],[-73.9987,40.7015],[-73.9973,40.7009],[-73.9933,40.6997],[-73.9891,40.6993],[-73.9878,40.6987],[-73.9874,40.6981],[-73.9873,40.6974],[-73.9876,40.6918],[-73.9881,40.6904],[-73.9878,40.6898],[-73.9873,40.6894],[-73.9809,40.6871],[-73.9791,40.6868],[-73.9759,40.6869],[-73.9679,40.6838],[-73.9534,40.6807],[-73.91,40.6783],[-73.9034,40.6784],[-73.8988,40.6778],[-73.8979,40.6776],[-73.8973,40.677],[-73.896,40.673],[-73.8953,40.6724],[-73.8942,40.6722],[-73.8667,40.6762],[-73.8626,40.6787],[-73.8607,40.6793],[-73.8451,40.6803],[-73.8415,40.6809]]]}},{"type":"Feature","properties":{"service":"L"},"geometry":{"type":"MultiLineString","coordinates":[[[-74.0034,40.7401],[-73.9729,40.7273],[-73.9518,40.7142],[-73.9496,40.7141],[-73.9422,40.7146],[-73.9406,40.7117],[-73.9396,40.7063],[-73.939,40.7056],[-73.9382,40.7055],[-73.9346,40.7059],[-73.9252,40.7075],[-73.9243,40.7074],[-73.9154,40.7019],[-73.9013,40.6938],[-73.9008,40.6931],[-73.9009,40.6922],[-73.905,40.6877],[-73.9056,40.6862],[-73.9058,40.6843],[-73.9054,40.6829],[-73.9039,40.6809],[-73.9029,40.6778],[-73.9028,40.6765],[-73.9033,40.6741],[-73.898,40.6537],[-73.8983,40.6526],[-73.9024,40.6458]]]}},{"type":"Feature","properties":{"service":"SF"},"geometry":{"type":"MultiLineString","coordinates":[[[-73.9558,40.681],[-73.9559,40.6795],[-73.9614,40.6644],[-73.9624,40.6623]]]}},{"type":"Feature","properties":{"service":"J"},"geometry":{"type":"MultiLineString","coordinates":[[[-74.0038,40.7127],[-74.0042,40.7123],[-74.0057,40.7118],[-74.0074,40.7105],[-74.0104,40.7075],[-74.0111,40.7065]],[[-74.0038,40.7127],[-73.9996,40.7184],[-73.9976,40.7208],[-73.9967,40.7211],[-73.9611,40.7102],[-73.9592,40.7089],[-73.9515,40.7061],[-73.8998,40.6768],[-73.8898,40.6783],[-73.8726,40.6835],[-73.8723,40.684],[-73.8739,40.6891],[-73.8736,40.6895],[-73.8713,40.6904],[-73.8684,40.6911],[-73.8623,40.6921],[-73.8547,40.6928],[-73.8506,40.6942],[-73.8462,40.6951],[-73.8399,40.6954],[-73.8385,40.6959],[-73.836,40.6976],[-73.8322,40.6996],[-73.8238,40.7014],[-73.8221,40.7012],[-73.8183,40.6988],[-73.816,40.6983],[-73.8138,40.6987],[-73.8,40.7024]]]}},{"type":"Feature","properties":{"service":"6"},"geometry":{"type":"MultiLineString","coordinates":[[[-74.0048,40.7124],[-74.0035,40.7138],[-74.0028,40.716],[-73.9973,40.7221],[-73.9964,40.7238],[-73.9907,40.7305],[-73.9899,40.7335],[-73.9899,40.7354],[-73.9796,40.7494]],[[-73.8272,40.8529],[-73.8297,40.8516],[-73.8306,40.8491],[-73.8317,40.8475],[-73.8372,40.8432],[-73.842,40.8407],[-73.8495,40.8345],[-73.8621,40.8331],[-73.8771,40.8288],[-73.8856,40.828],[-73.8861,40.8274],[-73.8868,40.8237],[-73.8876,40.8225],[-73.8893,40.8213],[-73.892,40.8203],[-73.8989,40.8137],[-73.9037,40.8122],[-73.9067,40.8104],[-73.9072,40.8098],[-73.9084,40.8066],[-73.9114,40.805],[-73.9124,40.8049],[-73.9134,40.8051],[-73.9269,40.8108],[-73.9289,40.8122],[-73.9299,40.8123],[-73.9308,40.8119],[-73.9348,40.8078],[-73.9754,40.7523],[-73.9759,40.752],[-73.9782,40.7514],[-73.9796,40.7494]]]}},{"type":"Feature","properties":{"service":"ST"},"geometry":{"type":"MultiLineString","coordinates":[[[-73.9792,40.7528],[-73.9855,40.7554],[-73.9863,40.7559]]]}},{"type":"Feature","properties":{"service":"B"},"geometry":{"type":"MultiLineString","coordinates":[[[-73.9613,40.5775],[-73.9597,40.5781],[-73.9547,40.585],[-73.9541,40.5862],[-73.954,40.5885],[-73.9545,40.5923],[-73.9645,40.6443],[-73.9643,40.6459],[-73.9613,40.6556],[-73.9613,40.6568],[-73.9619,40.6601],[-73.9627,40.6637],[-73.9764,40.6828],[-73.9774,40.6874],[-73.981,40.6893],[-73.9823,40.6918]],[[-73.9823,40.6918],[-73.9823,40.6918]],[[-73.9823,40.6918],[-73.9823,40.6918]],[[-73.9823,40.6918],[-73.9857,40.6987],[-73.9948,40.7152],[-73.9948,40.7163],[-73.9917,40.7223],[-73.9917,40.7229],[-73.992,40.7238],[-73.9931,40.7244],[-73.9984,40.7261],[-74.0018,40.7279],[-74.0023,40.7284],[-74.0025,40.7289],[-74.0009,40.7317],[-73.9796,40.7611],[-73.9795,40.7617],[-73.98,40.7622],[-73.9838,40.7638],[-73.9841,40.7644],[-73.984,40.765],[-73.9532,40.8072],[-73.9528,40.8081],[-73.953,40.8101],[-73.9495,40.8141],[-73.9449,40.8236],[-73.942,40.8275],[-73.9407,40.8296],[-73.9398,40.8301],[-73.9382,40.8303],[-73.9306,40.83],[-73.9292,40.8297],[-73.9266,40.8283],[-73.9244,40.8275],[-73.9231,40.8274],[-73.9219,40.8279],[-73.9192,40.8327],[-73.9134,40.8391],[-73.9112,40.8447],[-73.9065,40.8488],[-73.901,40.8557],[-73.8963,40.8635],[-73.8917,40.8693],[-73.8887,40.8715],[-73.8867,40.874]]]}},{"type":"Feature","properties":{"service":"4"},"geometry":{"type":"MultiLineString","coordinates":[[[-73.9329,40.6689],[-73.9554,40.6702],[-73.9636,40.6719],[-73.9693,40.6734],[-73.9703,40.6741],[-73.9811,40.6889],[-73.9894,40.6923],[-73.9989,40.6938],[-74.0024,40.6949],[-74.0051,40.6963],[-74.0138,40.7018],[-74.0144,40.7025],[-74.0147,40.7035],[-74.0144,40.7044],[-74.0091,40.7109],[-74.0086,40.7113],[-74.0052,40.7122],[-74.0039,40.7132],[-74.0034,40.714],[-74.0028,40.7159],[-73.9973,40.7221],[-73.9964,40.7238],[-73.9908,40.7304],[-73.9899,40.7335],[-73.9899,40.7354],[-73.9796,40.7494]],[[-73.8783,40.8867],[-73.8814,40.8826],[-73.8876,40.8772],[-73.8893,40.8741],[-73.8918,40.8721],[-73.8954,40.8701],[-73.9017,40.862],[-73.9053,40.8561],[-73.9102,40.8506],[-73.9189,40.8385],[-73.9203,40.8373],[-73.9271,40.8258],[-73.9272,40.8248],[-73.9261,40.8211],[-73.9292,40.814],[-73.9344,40.8084],[-73.9754,40.7523],[-73.9759,40.752],[-73.9782,40.7514],[-73.9796,40.7494]]]}},{"type":"Feature","properties":{"service":"Q"},"geometry":{"type":"MultiLineString","coordinates":[[[-73.9811,40.5774],[-73.981,40.5766],[-73.9806,40.5762],[-73.9777,40.5757],[-73.9738,40.5767],[-73.9677,40.5764],[-73.9613,40.5776]],[[-73.9614,40.5777],[-73.9599,40.5782],[-73.9548,40.5851],[-73.9543,40.5862],[-73.9541,40.5886],[-73.9547,40.5922],[-73.9646,40.6443],[-73.9645,40.6459],[-73.9615,40.6559],[-73.9626,40.663],[-73.97,40.6739],[-73.9764,40.6827],[-73.9775,40.6874],[-73.9813,40.6895],[-73.9854,40.6979],[-73.9953,40.7153],[-73.9963,40.7162],[-73.999,40.7173],[-74.0014,40.719],[-74.0016,40.7195],[-73.9915,40.7318],[-73.9895,40.7402],[-73.9875,40.7523],[-73.9861,40.7566],[-73.9849,40.7588],[-73.9785,40.7676],[-73.9769,40.7686],[-73.9748,40.7687],[-73.9738,40.7683],[-73.9713,40.7668],[-73.9642,40.7639],[-73.963,40.7637],[-73.9619,40.7641],[-73.9612,40.7648],[-73.9427,40.7901]]]}},{"type":"Feature","properties":{"service":"7"},"geometry":{"type":"MultiLineString","coordinates":[[[-74.0061,40.7501],[-73.9998,40.7588],[-73.9988,40.7594],[-73.9976,40.7595],[-73.9848,40.7542],[-73.983,40.7541],[-73.9804,40.7532],[-73.9557,40.743],[-73.95,40.742],[-73.9474,40.7426],[-73.945,40.7436],[-73.9447,40.7443],[-73.9456,40.7459],[-73.9449,40.7482],[-73.9426,40.7509],[-73.942,40.7512],[-73.9381,40.7495],[-73.9338,40.7453],[-73.9331,40.7449],[-73.9168,40.7429],[-73.9107,40.7447],[-73.9074,40.7453],[-73.8612,40.7501],[-73.8446,40.7549],[-73.8369,40.7577],[-73.834,40.7582],[-73.8291,40.7598]]]}},{"type":"Feature","properties":{"service":"F"},"geometry":{"type":"MultiLineString","coordinates":[[[-73.9811,40.5774],[-73.9809,40.5766],[-73.9805,40.5762],[-73.978,40.5758],[-73.9766,40.5759],[-73.9748,40.5765],[-73.9746,40.5768],[-73.9748,40.579],[-73.9745,40.582],[-73.9747,40.5833],[-73.9743,40.5892],[-73.9723,40.6043],[-73.979,40.6398],[-73.9799,40.6457],[-73.9798,40.6465],[-73.9793,40.6472],[-73.9786,40.6478],[-73.9765,40.6488],[-73.9758,40.65],[-73.9759,40.6518],[-73.9767,40.6553],[-73.9773,40.656],[-73.98,40.6576],[-73.9804,40.6584],[-73.9799,40.6598],[-73.9773,40.6631],[-73.9771,40.664],[-73.9778,40.665],[-73.9849,40.6686],[-73.988,40.6694],[-73.9931,40.6719],[-73.9961,40.6737],[-73.9974,40.675],[-73.9974,40.6761],[-73.996,40.679],[-73.9935,40.6823],[-73.9874,40.6914],[-73.9866,40.7052],[-73.9873,40.7071],[-73.9895,40.7103],[-73.9899,40.7118],[-73.9901,40.7136],[-73.9899,40.7151],[-73.987,40.7207],[-73.9868,40.7215],[-73.9872,40.7222],[-73.9881,40.7228],[-73.9982,40.726],[-74.0018,40.7279],[-74.0023,40.7284],[-74.0025,40.729],[-74.0022,40.7297],[-73.999,40.7343],[-73.9803,40.7601],[-73.9794,40.7611],[-73.9784,40.7613],[-73.9763,40.7607],[-73.9632,40.755],[-73.9565,40.7506],[-73.9547,40.7497],[-73.9523,40.749],[-73.9429,40.7472],[-73.9418,40.7473],[-73.938,40.7488],[-73.936,40.7498],[-73.9342,40.7513],[-73.9326,40.7519],[-73.9255,40.7521],[-73.9173,40.7538],[-73.9112,40.753],[-73.9078,40.7533],[-73.9065,40.7531],[-73.8858,40.7443],[-73.8823,40.7426],[-73.8794,40.7405],[-73.8769,40.7363],[-73.8757,40.7352],[-73.8696,40.7334],[-73.8656,40.7314],[-73.8533,40.7268],[-73.8514,40.7258],[-73.8484,40.7235],[-73.836,40.7176],[-73.8305,40.7142],[-73.8218,40.7105],[-73.8209,40.7097],[-73.8181,40.7054],[-73.8174,40.7048],[-73.8164,40.7044],[-73.8153,40.7043],[-73.8141,40.7046],[-73.7958,40.7097],[-73.7905,40.7116],[-73.7854,40.7123],[-73.7772,40.7142]]]}},{"type":"Feature","properties":{"service":"G"},"geometry":{"type":"MultiLineString","coordinates":[[[-73.9794,40.6434],[-73.9798,40.6458],[-73.9796,40.6468],[-73.9786,40.6477],[-73.9764,40.6488],[-73.9758,40.6497],[-73.9758,40.6516],[-73.9765,40.655]],[[-73.9774,40.6648],[-73.977,40.664],[-73.9771,40.6633],[-73.9797,40.6601],[-73.9804,40.6584],[-73.9799,40.6577],[-73.9772,40.656],[-73.9765,40.6551]],[[-73.989,40.6887],[-73.989,40.6887]],[[-73.989,40.6887],[-73.9959,40.6789],[-73.9973,40.676],[-73.9972,40.6749],[-73.9959,40.6736],[-73.9929,40.6718],[-73.988,40.6695],[-73.985,40.6687],[-73.9774,40.6648]],[[-73.989,40.6887],[-73.989,40.6887]],[[-73.9439,40.7465],[-73.9488,40.7445],[-73.9537,40.7419],[-73.9549,40.7408],[-73.9554,40.7394],[-73.9554,40.7372],[-73.9542,40.7301],[-73.9498,40.722],[-73.9501,40.7211],[-73.952,40.7195],[-73.9523,40.7185],[-73.9502,40.7055],[-73.9502,40.7004],[-73.9484,40.6915],[-73.9485,40.6906],[-73.9499,40.69],[-73.9787,40.6868],[-73.9816,40.6872],[-73.9875,40.6893],[-73.9883,40.6893],[-73.989,40.6887]]]}},{"type":"Feature","properties":{"service":"M"},"geometry":{"type":"MultiLineString","coordinates":[[[-73.8893,40.712],[-73.8903,40.7095],[-73.8926,40.7071],[-73.9068,40.7035],[-73.9112,40.6996],[-73.933,40.6972],[-73.9343,40.6966],[-73.9515,40.7062],[-73.9592,40.7089],[-73.961,40.7102],[-73.9914,40.7196],[-73.992,40.7204],[-73.9916,40.7226],[-73.9922,40.7239],[-73.9984,40.7261],[-74.0019,40.7279],[-74.0023,40.7284],[-74.0024,40.7291],[-73.999,40.7343],[-73.9756,40.7664],[-73.9748,40.7671],[-73.9734,40.7674],[-73.9717,40.767],[-73.9484,40.757],[-73.9361,40.7507],[-73.9352,40.7508],[-73.934,40.7516],[-73.9326,40.752],[-73.9263,40.7522],[-73.9247,40.7524],[-73.924,40.753],[-73.9198,40.7581],[-73.9188,40.7586],[-73.9176,40.7584],[-73.9075,40.7536],[-73.8858,40.7444],[-73.8826,40.7429],[-73.8794,40.7406],[-73.8768,40.7363],[-73.8756,40.7353],[-73.8696,40.7334],[-73.8656,40.7315],[-73.8536,40.7271],[-73.8514,40.7259],[-73.8484,40.7236],[-73.8435,40.7213]]]}},{"type":"Feature","properties":{"service":"Z"},"geometry":{"type":"MultiLineString","coordinates":[[[-74.0038,40.7127],[-74.0042,40.7123],[-74.0057,40.7118],[-74.0074,40.7105],[-74.0104,40.7075],[-74.0111,40.7065]],[[-74.0038,40.7127],[-73.9996,40.7184],[-73.9976,40.7208],[-73.9967,40.7211],[-73.9611,40.7102],[-73.9593,40.7089],[-73.9515,40.7061],[-73.8998,40.6768],[-73.8898,40.6783],[-73.8726,40.6835],[-73.8723,40.6841],[-73.8739,40.6891],[-73.8736,40.6895],[-73.8713,40.6904],[-73.8684,40.6911],[-73.8623,40.6921],[-73.8547,40.6928],[-73.8506,40.6942],[-73.8462,40.6951],[-73.8399,40.6954],[-73.8385,40.696],[-73.836,40.6976],[-73.8322,40.6996],[-73.8238,40.7014],[-73.8221,40.7012],[-73.8183,40.6988],[-73.816,40.6984],[-73.8138,40.6987],[-73.8,40.7024]]]}},{"type":"Feature","properties":{"service":"5 Peak"},"geometry":{"type":"MultiLineString","coordinates":[[[-73.8696,40.8465],[-73.8678,40.8501],[-73.8668,40.8767],[-73.8638,40.8817],[-73.8551,40.8973],[-73.85,40.9037]]]}},{"type":"Feature","properties":{"service":"5"},"geometry":{"type":"MultiLineString","coordinates":[[[-73.9476,40.6322],[-73.951,40.6639],[-73.9506,40.6688],[-73.9509,40.6695],[-73.9516,40.6698],[-73.9557,40.6702],[-73.9615,40.6714],[-73.9695,40.6735],[-73.9703,40.6741],[-73.9811,40.6889],[-73.9894,40.6923],[-73.999,40.6938],[-74.0026,40.6949],[-74.0049,40.6961],[-74.0137,40.7018],[-74.0146,40.703],[-74.0146,40.7038],[-74.0143,40.7045],[-74.009,40.711],[-74.0052,40.7122],[-74.0038,40.7134],[-74.0028,40.7159],[-73.9973,40.7221],[-73.9964,40.7238],[-73.9908,40.7304],[-73.9899,40.7335],[-73.9899,40.7354],[-73.9796,40.7494]],[[-73.8293,40.8908],[-73.8326,40.8856],[-73.8557,40.8585],[-73.8575,40.8568],[-73.8687,40.8477],[-73.8696,40.8465],[-73.8707,40.8442],[-73.8713,40.8435],[-73.8744,40.8411],[-73.877,40.8407],[-73.8789,40.8412],[-73.8804,40.84],[-73.8816,40.8396],[-73.8844,40.8392],[-73.8876,40.8373],[-73.8916,40.8306],[-73.8918,40.825],[-73.8921,40.8245],[-73.9089,40.816],[-73.9138,40.8162],[-73.9163,40.8157],[-73.9277,40.8186],[-73.9283,40.8185],[-73.9285,40.8181],[-73.928,40.8171],[-73.9292,40.814],[-73.9344,40.8084],[-73.9754,40.7523],[-73.9759,40.752],[-73.9782,40.7514],[-73.9796,40.7494]]]}},{"type":"Feature","properties":{"service":"SR"},"geometry":{"type":"MultiLineString","coordinates":[[[-73.8163,40.6093],[-73.8095,40.5932],[-73.8093,40.5918],[-73.8099,40.5904],[-73.8108,40.5895],[-73.8119,40.5888],[-73.8213,40.5851],[-73.837,40.5806]]]}},{"type":"Feature","properties":{"service":"E"},"geometry":{"type":"MultiLineString","coordinates":[[[-73.8194,40.7072],[-73.8181,40.705],[-73.8161,40.7009],[-73.8153,40.7002],[-73.8136,40.6996],[-73.8113,40.6995],[-73.8,40.7025]],[[-74.0077,40.7154],[-74.0077,40.7154]],[[-74.0077,40.7154],[-74.008,40.7147],[-74.0104,40.7118],[-74.0098,40.7125]],[[-73.9418,40.7474],[-73.9434,40.7473],[-73.9525,40.7491],[-73.9544,40.7496],[-73.9566,40.7507],[-73.9631,40.755],[-73.9835,40.7636],[-73.9843,40.7638],[-73.9851,40.7636],[-74.0025,40.7398],[-74.0025,40.7388],[-73.9998,40.7344],[-73.9997,40.7336],[-74.0025,40.7293],[-74.0051,40.7229],[-74.0053,40.7185],[-74.0077,40.7154]],[[-73.9418,40.7474],[-73.9373,40.749],[-73.9345,40.7511],[-73.9327,40.7518],[-73.9255,40.7521],[-73.9173,40.7538],[-73.9111,40.753],[-73.9079,40.7533],[-73.9067,40.7531],[-73.883,40.7429],[-73.8796,40.7406],[-73.8771,40.7363],[-73.8759,40.7353],[-73.8697,40.7333],[-73.8657,40.7314],[-73.853,40.7266],[-73.8514,40.7257],[-73.8484,40.7234],[-73.836,40.7176],[-73.8306,40.7141],[-73.8218,40.7104],[-73.821,40.7097],[-73.8195,40.7072]]]}},{"type":"Feature","properties":{"service":"C"},"geometry":{"type":"MultiLineString","coordinates":[[[-73.9437,40.8256],[-73.9451,40.8236],[-73.9496,40.8142],[-73.9531,40.8101],[-73.953,40.8081],[-73.9533,40.8072],[-74.0024,40.74],[-74.0025,40.7389],[-73.9998,40.7344],[-73.9997,40.7336],[-74.0025,40.7293],[-74.0051,40.723],[-74.0053,40.7185],[-74.01,40.7126],[-74.0101,40.7117],[-74.0096,40.7112],[-74.0054,40.709],[-74.0006,40.703],[-73.9987,40.7015],[-73.9973,40.7009],[-73.9932,40.6997],[-73.9891,40.6993],[-73.9879,40.6988],[-73.9874,40.6982],[-73.9873,40.6974],[-73.9876,40.6918],[-73.9881,40.6905],[-73.9879,40.69],[-73.9868,40.6892],[-73.9809,40.6871],[-73.9791,40.6868],[-73.9759,40.6869],[-73.9679,40.6838],[-73.9529,40.6806],[-73.91,40.6783],[-73.9034,40.6784],[-73.8986,40.6778],[-73.8978,40.6775],[-73.8973,40.677],[-73.8961,40.673],[-73.8954,40.6725],[-73.8945,40.6722],[-73.8711,40.6756]]]}},{"type":"Feature","properties":{"service":"W"},"geometry":{"type":"MultiLineString","coordinates":[[[-74.0015,40.7198],[-73.9915,40.7318],[-73.9895,40.7402],[-73.9875,40.7523],[-73.9861,40.7566],[-73.9849,40.7588],[-73.979,40.7668],[-73.978,40.7668],[-73.9748,40.7651],[-73.9718,40.7646],[-73.9498,40.7552],[-73.9471,40.7538],[-73.942,40.7516],[-73.9376,40.7493],[-73.937,40.7492],[-73.9364,40.7494],[-73.9336,40.7518],[-73.9205,40.7679],[-73.9113,40.7756]],[[-74.0015,40.7198],[-74.0083,40.7119],[-74.0088,40.7116],[-74.0099,40.7119],[-74.0103,40.7116],[-74.0139,40.7065],[-74.014,40.7059],[-74.0133,40.705],[-74.0128,40.7022]]]}},{"type":"Feature","properties":{"service":"R"},"geometry":{"type":"MultiLineString","coordinates":[[[-73.979,40.6881],[-73.9784,40.6874],[-73.9781,40.6853],[-73.9783,40.6846],[-73.9841,40.676],[-73.9925,40.6659],[-74.0224,40.6372],[-74.0239,40.6341],[-74.0313,40.6158]],[[-73.979,40.6881],[-73.9812,40.6893],[-73.9824,40.6916],[-73.9828,40.692],[-73.9893,40.6923],[-73.9907,40.6938],[-74.0009,40.6967],[-74.0114,40.7008],[-74.0125,40.7015],[-74.0133,40.705],[-74.014,40.7059],[-74.0139,40.7064],[-74.0103,40.7116],[-74.0099,40.7119],[-74.0088,40.7116],[-74.0083,40.7119],[-74.0015,40.7198]],[[-74.0015,40.7198],[-73.9915,40.7318],[-73.9895,40.7402],[-73.9875,40.7523],[-73.9861,40.7566],[-73.9849,40.7588],[-73.979,40.7668],[-73.978,40.7668],[-73.9748,40.7651],[-73.9719,40.7646],[-73.9499,40.7552],[-73.9463,40.7534]],[[-73.8435,40.7213],[-73.8484,40.7235],[-73.8514,40.7258],[-73.8536,40.727],[-73.8656,40.7315],[-73.8696,40.7334],[-73.8757,40.7352],[-73.8769,40.7363],[-73.8794,40.7406],[-73.8827,40.7428],[-73.8859,40.7444],[-73.9075,40.7536],[-73.9177,40.7584],[-73.9189,40.7585],[-73.9198,40.758],[-73.9239,40.7529],[-73.9245,40.7524],[-73.9262,40.7521],[-73.9331,40.7518],[-73.9345,40.7512],[-73.9368,40.7494],[-73.9399,40.7479],[-73.9411,40.7481],[-73.9428,40.7492],[-73.9432,40.7499],[-73.9431,40.7514],[-73.9433,40.7519],[-73.9463,40.7534]]]}},{"type":"Feature","properties":{"service":"SIR"},"geometry":{"type":"MultiLineString","coordinates":[[[-74.2526,40.5123],[-74.2507,40.5135],[-74.2494,40.5141]],[[-74.2525,40.5124],[-74.2508,40.5136],[-74.2495,40.5142],[-74.2487,40.5145]],[[-74.2501,40.5138],[-74.2508,40.5134],[-74.2525,40.5122]],[[-74.2501,40.5138],[-74.2525,40.5122]],[[-74.2501,40.5138],[-74.2494,40.5141]],[[-74.2494,40.5141],[-74.2493,40.5142]],[[-74.2494,40.5141],[-74.2494,40.5142],[-74.2493,40.5142]],[[-74.2493,40.5142],[-74.2485,40.5146]],[[-74.2487,40.5145],[-74.2506,40.5136],[-74.2527,40.5122]],[[-74.2485,40.5146],[-74.2487,40.5145]],[[-74.248,40.5147],[-74.2485,40.5146]],[[-74.248,40.5147],[-74.2465,40.5152],[-74.2436,40.5159],[-74.2408,40.5172],[-74.2397,40.5176],[-74.23,40.5195]],[[-74.2296,40.5196],[-74.23,40.5195]],[[-74.2296,40.5196],[-74.2218,40.5213]],[[-74.235,40.5197],[-74.23,40.5195]],[[-74.2218,40.5213],[-74.2213,40.5214]],[[-74.2213,40.5214],[-74.2253,40.5204],[-74.2397,40.5175],[-74.2436,40.5159],[-74.248,40.5147]],[[-74.221,40.5215],[-74.2213,40.5214]],[[-74.221,40.5215],[-74.2205,40.5217]],[[-74.2205,40.5217],[-74.2218,40.5213]],[[-74.2199,40.5219],[-74.2205,40.5217]],[[-74.2199,40.5219],[-74.2193,40.522]],[[-74.2193,40.522],[-74.221,40.5215]],[[-74.2193,40.522],[-74.2161,40.5227],[-74.2093,40.5236],[-74.2038,40.5243],[-74.2024,40.5246],[-74.2009,40.5251],[-74.1996,40.5258],[-74.1986,40.5265],[-74.1976,40.5275]],[[-74.1976,40.5275],[-74.1989,40.526]],[[-74.1976,40.5275],[-74.1956,40.5296]],[[-74.1954,40.5299],[-74.1988,40.5264],[-74.2001,40.5255],[-74.2016,40.5249],[-74.2051,40.5242],[-74.2164,40.5227],[-74.2199,40.5219]],[[-74.1954,40.5299],[-74.1956,40.5296]],[[-74.1942,40.5312],[-74.1954,40.5299]],[[-74.1942,40.5312],[-74.1928,40.5329]],[[-74.1932,40.5322],[-74.1942,40.5312]],[[-74.1932,40.5322],[-74.1929,40.5325]],[[-74.1932,40.5322],[-74.1908,40.5347],[-74.1894,40.536],[-74.1875,40.5372],[-74.1865,40.5378],[-74.1851,40.5385],[-74.1831,40.5393],[-74.1811,40.5398],[-74.1696,40.5423],[-74.1664,40.5437],[-74.1589,40.5475]],[[-74.1929,40.5325],[-74.1956,40.5296]],[[-74.1929,40.5325],[-74.189,40.5362],[-74.1851,40.5384],[-74.1811,40.5398],[-74.1697,40.5423],[-74.1664,40.5436],[-74.1585,40.5477]],[[-74.1589,40.5475],[-74.1545,40.5498]],[[-74.1585,40.5477],[-74.1589,40.5475]],[[-74.1585,40.5477],[-74.1549,40.5495]],[[-74.1579,40.5479],[-74.1583,40.5476]],[[-74.1549,40.5495],[-74.1545,40.5497]],[[-74.1545,40.5497],[-74.1508,40.5515],[-74.1494,40.5521],[-74.1447,40.5528],[-74.1437,40.553],[-74.1428,40.5533],[-74.1415,40.5538],[-74.1395,40.5548],[-74.1377,40.5558],[-74.1361,40.557],[-74.1258,40.5655],[-74.1248,40.5664],[-74.1211,40.5704],[-74.1199,40.5715],[-74.1049,40.5824]],[[-74.1545,40.5497],[-74.1521,40.5508]],[[-74.1545,40.5498],[-74.1549,40.5495]],[[-74.1545,40.5498],[-74.1504,40.5517]],[[-74.1504,40.5517],[-74.1496,40.552],[-74.1486,40.5523],[-74.1433,40.5532],[-74.1379,40.5558],[-74.1258,40.5655],[-74.121,40.5705],[-74.1196,40.5718],[-74.1053,40.5822]],[[-74.1049,40.5824],[-74.1053,40.5822]],[[-74.1049,40.5824],[-74.1047,40.5826]],[[-74.1047,40.5826],[-74.1011,40.5852]],[[-74.1047,40.5826],[-74.1043,40.5829]],[[-74.1043,40.5829],[-74.1053,40.5822]],[[-74.1015,40.585],[-74.1043,40.5829]],[[-74.1011,40.5852],[-74.1015,40.585]],[[-74.1011,40.5852],[-74.091,40.5925],[-74.0899,40.5934],[-74.0888,40.5945],[-74.0879,40.5958],[-74.0871,40.5972],[-74.0865,40.5985]],[[-74.0865,40.5985],[-74.086,40.5998]],[[-74.0864,40.5988],[-74.0878,40.5959],[-74.0898,40.5936],[-74.1015,40.585]],[[-74.0864,40.5988],[-74.0865,40.5985]],[[-74.0863,40.5991],[-74.0864,40.5988]],[[-74.0863,40.5994],[-74.0863,40.5991]],[[-74.0862,40.5995],[-74.0863,40.5991]],[[-74.0862,40.5995],[-74.086,40.5998]],[[-74.086,40.5998],[-74.0848,40.6022],[-74.0794,40.6091],[-74.0748,40.6166],[-74.0738,40.6176],[-74.0721,40.6186],[-74.0717,40.619],[-74.0713,40.6197],[-74.0712,40.62],[-74.0711,40.6204],[-74.0712,40.6208],[-74.0714,40.6213],[-74.0719,40.6223],[-74.0739,40.6248]],[[-74.0865,40.6002],[-74.0863,40.5994]],[[-74.0858,40.6006],[-74.0863,40.5994]],[[-74.0721,40.6178],[-74.0721,40.6173]],[[-74.0721,40.6181],[-74.0718,40.6187]],[[-74.0722,40.6187],[-74.072,40.6189]],[[-74.0713,40.6215],[-74.0718,40.6224]],[[-74.0714,40.6219],[-74.0723,40.6232]],[[-74.0717,40.6221],[-74.071,40.6208]],[[-74.0717,40.6221],[-74.0734,40.6243]],[[-74.0718,40.6224],[-74.0717,40.6221]],[[-74.0718,40.6224],[-74.0721,40.6228]],[[-74.0723,40.6226],[-74.0731,40.6236]],[[-74.0719,40.6228],[-74.0723,40.6232]],[[-74.0721,40.6228],[-74.0731,40.624]],[[-74.0718,40.6228],[-74.0723,40.6233]],[[-74.0723,40.623],[-74.0721,40.6228]],[[-74.0723,40.623],[-74.0715,40.6219]],[[-74.0723,40.6232],[-74.0724,40.6233]],[[-74.0724,40.6233],[-74.0719,40.6228]],[[-74.0723,40.6233],[-74.0716,40.6228]],[[-74.0723,40.6233],[-74.0724,40.6233]],[[-74.0724,40.6233],[-74.0723,40.6233],[-74.0723,40.6233]],[[-74.0726,40.6234],[-74.0723,40.623]],[[-74.0726,40.6234],[-74.0724,40.6233]],[[-74.0727,40.6236],[-74.0726,40.6234]],[[-74.0727,40.6236],[-74.0724,40.6233]],[[-74.0731,40.624],[-74.0727,40.6236]],[[-74.0734,40.6243],[-74.0731,40.624]],[[-74.0734,40.6243],[-74.0743,40.6254]],[[-74.0738,40.6245],[-74.0719,40.6222],[-74.0713,40.6212],[-74.0712,40.6204],[-74.0714,40.6196],[-74.0721,40.6187],[-74.0739,40.6175],[-74.0746,40.6169],[-74.0751,40.6164],[-74.0793,40.6093],[-74.085,40.602],[-74.0862,40.5995]],[[-74.0739,40.6248],[-74.0738,40.6245]],[[-74.0739,40.6248],[-74.0743,40.6254]],[[-74.0743,40.6254],[-74.0749,40.6266],[-74.0753,40.6296],[-74.0752,40.6311],[-74.0744,40.6327],[-74.0743,40.6335],[-74.0748,40.6367],[-74.075,40.6377]],[[-74.0745,40.6344],[-74.0744,40.6334]],[[-74.0746,40.6349],[-74.0745,40.6344]],[[-74.0745,40.6349],[-74.0744,40.6332],[-74.0752,40.631],[-74.0754,40.63],[-74.0753,40.629],[-74.0749,40.6264],[-74.0746,40.6258],[-74.0738,40.6245]],[[-74.0745,40.6349],[-74.0746,40.6351],[-74.0746,40.6351]],[[-74.0746,40.6351],[-74.0745,40.6349]],[[-74.0746,40.6351],[-74.0747,40.6356]],[[-74.0752,40.6353],[-74.0753,40.6356]],[[-74.0747,40.6356],[-74.0745,40.6344]],[[-74.0752,40.6356],[-74.0751,40.6353]],[[-74.0748,40.6358],[-74.0746,40.6349]],[[-74.0748,40.6358],[-74.0746,40.6349]],[[-74.075,40.6376],[-74.0747,40.6356]],[[-74.075,40.6376],[-74.0746,40.6351]],[[-74.0752,40.6382],[-74.075,40.6376]],[[-74.0752,40.6382],[-74.075,40.6377]],[[-74.0752,40.6382],[-74.0754,40.639],[-74.0753,40.6397]],[[-74.0753,40.6397],[-74.0751,40.6401]],[[-74.0753,40.6397],[-74.075,40.6407]],[[-74.0751,40.6401],[-74.0753,40.6388],[-74.075,40.6377]],[[-74.0751,40.6403],[-74.0751,40.6401]],[[-74.0751,40.6403],[-74.075,40.6407]],[[-74.0751,40.6403],[-74.0746,40.6422]],[[-74.075,40.6407],[-74.0747,40.6421]],[[-74.0747,40.6421],[-74.0746,40.6423]],[[-74.0746,40.6422],[-74.074,40.6431],[-74.0733,40.644]],[[-74.0746,40.6422],[-74.0732,40.6439]],[[-74.0746,40.6423],[-74.0742,40.6431],[-74.0734,40.6441]],[[-74.0744,40.6435],[-74.0743,40.6435],[-74.0742,40.6436],[-74.0739,40.6438],[-74.0735,40.6442]],[[-74.0757,40.6436],[-74.0755,40.6435],[-74.0754,40.6435],[-74.075,40.6434],[-74.0744,40.6435]],[[-74.0757,40.6436],[-74.0758,40.6437]],[[-74.0757,40.6436],[-74.0757,40.6436],[-74.0755,40.6435],[-74.0753,40.6435],[-74.0749,40.6434],[-74.0743,40.6436]],[[-74.0758,40.6437],[-74.0761,40.6439]],[[-74.0758,40.6437],[-74.0762,40.6441]],[[-74.0761,40.6439],[-74.075,40.643],[-74.0747,40.6421]],[[-74.0761,40.6439],[-74.0766,40.6446]],[[-74.0733,40.644],[-74.0741,40.6432],[-74.0746,40.6423]],[[-74.0734,40.6441],[-74.0743,40.6433],[-74.0751,40.6433]],[[-74.0735,40.6442],[-74.0744,40.6435]],[[-74.0736,40.6443],[-74.074,40.6438]]]}},{"type":"Feature","properties":{"service":"3"},"geometry":{"type":"MultiLineString","coordinates":[[[-73.9859,40.7575],[-74.001,40.7368],[-74.0051,40.7296],[-74.0071,40.7184],[-74.0103,40.7141],[-74.0099,40.7136],[-74.0078,40.7125],[-74.006,40.7107],[-74.0058,40.7103],[-74.0097,40.7061],[-74.01,40.7053],[-74.0096,40.7046],[-74.0067,40.7023],[-74.0049,40.7013],[-73.9981,40.6988],[-73.9914,40.6969],[-73.9904,40.694],[-73.9894,40.6923],[-73.9809,40.6887],[-73.9703,40.6741],[-73.9691,40.6733],[-73.9636,40.6718],[-73.9553,40.6701],[-73.9262,40.6684],[-73.9252,40.6678],[-73.9241,40.6659],[-73.9191,40.6615],[-73.9183,40.6612],[-73.8832,40.6663]],[[-73.9368,40.824],[-73.9347,40.8231],[-73.9345,40.8228],[-73.9346,40.8224],[-73.9361,40.8207],[-73.9524,40.7986],[-73.9532,40.7982],[-73.9606,40.7967],[-73.9615,40.7969],[-73.9672,40.7993],[-73.9683,40.7992],[-73.98,40.7838],[-73.9812,40.7813],[-73.982,40.7778],[-73.9821,40.7696],[-73.9817,40.7675],[-73.982,40.7655],[-73.9826,40.7639],[-73.9847,40.7605],[-73.9859,40.7575]]]}},{"type":"Feature","properties":{"service":"2"},"geometry":{"type":"MultiLineString","coordinates":[[[-73.9859,40.7575],[-74.001,40.7368],[-74.0051,40.7296],[-74.0071,40.7184],[-74.0103,40.7141],[-74.0099,40.7136],[-74.0078,40.7125],[-74.006,40.7107],[-74.0058,40.7103],[-74.0096,40.7063],[-74.01,40.7051],[-74.0069,40.7024],[-74.005,40.7013],[-73.9981,40.6988],[-73.9916,40.6969],[-73.9912,40.6966],[-73.9911,40.6957],[-73.9904,40.694],[-73.9894,40.6923],[-73.981,40.6888],[-73.9703,40.6741],[-73.9697,40.6736],[-73.9618,40.6714],[-73.9557,40.6701],[-73.9516,40.6698],[-73.9509,40.6694],[-73.9507,40.6688],[-73.9511,40.6639],[-73.9477,40.6322]],[[-73.9859,40.7575],[-73.9847,40.7605],[-73.9826,40.7639],[-73.982,40.7656],[-73.9817,40.7675],[-73.9821,40.7696],[-73.9821,40.7765],[-73.9818,40.7793],[-73.9808,40.7825],[-73.98,40.7838],[-73.9685,40.7991],[-73.9679,40.7994],[-73.9672,40.7993],[-73.9606,40.7967],[-73.9526,40.7984],[-73.9512,40.8],[-73.9381,40.8181],[-73.9369,40.8189],[-73.9317,40.8192],[-73.9294,40.8191],[-73.9162,40.8158],[-73.9139,40.8163],[-73.9097,40.816],[-73.9084,40.8163],[-73.8922,40.8246],[-73.8918,40.8307],[-73.8881,40.837],[-73.8875,40.8376],[-73.8844,40.8394],[-73.8817,40.8397],[-73.8805,40.8401],[-73.879,40.8413],[-73.877,40.8408],[-73.8745,40.8412],[-73.871,40.8441],[-73.8679,40.85],[-73.8669,40.8767],[-73.8638,40.8817],[-73.8552,40.8974],[-73.8501,40.9037]]]}},{"type":"Feature","properties":{"service":"N"},"geometry":{"type":"MultiLineString","coordinates":[[[-73.979,40.6881],[-73.9784,40.6874],[-73.9781,40.6853],[-73.9783,40.6846],[-73.9841,40.676],[-73.9925,40.6659],[-74.0203,40.6391],[-74.0207,40.6384],[-74.0205,40.6378],[-74.02,40.6374],[-74.0119,40.6351],[-74.0066,40.6322],[-73.998,40.6269],[-73.9954,40.6238],[-73.9844,40.617],[-73.983,40.6155],[-73.9821,40.613],[-73.978,40.5915],[-73.9781,40.5902],[-73.9789,40.5875],[-73.9801,40.5838],[-73.9814,40.5806],[-73.9811,40.5774]],[[-73.979,40.6881],[-73.9813,40.6895],[-73.9854,40.6979],[-73.9953,40.7153],[-73.9963,40.7162],[-73.999,40.7173],[-74.0013,40.719],[-74.0016,40.7195],[-73.9915,40.7318],[-73.9895,40.7402],[-73.9875,40.7523],[-73.9861,40.7565],[-73.985,40.7587],[-73.9794,40.7664]],[[-73.9793,40.7665],[-73.9788,40.7669],[-73.9781,40.7669],[-73.9749,40.7651],[-73.9719,40.7646],[-73.9498,40.7552],[-73.9471,40.7538],[-73.942,40.7516],[-73.9376,40.7493],[-73.937,40.7492],[-73.9364,40.7494],[-73.9336,40.7518],[-73.9205,40.7679],[-73.9113,40.7756]]]}},{"type":"Feature","properties":{"service":"D"},"geometry":{"type":"MultiLineString","coordinates":[[[-73.9789,40.6882],[-73.9812,40.6896],[-73.9857,40.6987],[-73.9948,40.7151],[-73.9948,40.7163],[-73.9917,40.7223],[-73.9917,40.7229],[-73.992,40.7238],[-73.9931,40.7244],[-73.9983,40.7261],[-74.0018,40.7279],[-74.0025,40.7289],[-74.0023,40.7295],[-74.0009,40.7317],[-73.9796,40.7611],[-73.9795,40.7617],[-73.98,40.7622],[-73.9838,40.7639],[-73.9841,40.7644],[-73.984,40.765],[-73.9532,40.8072],[-73.9528,40.8081],[-73.953,40.8101],[-73.9495,40.8141],[-73.9449,40.8236],[-73.9407,40.8296],[-73.9397,40.8301],[-73.9381,40.8303],[-73.9305,40.83],[-73.9291,40.8297],[-73.9267,40.8283],[-73.9246,40.8276],[-73.9233,40.8274],[-73.9221,40.8278],[-73.9215,40.8284],[-73.9202,40.8312],[-73.9192,40.8328],[-73.9135,40.839],[-73.9112,40.8447],[-73.9064,40.8489],[-73.9009,40.8557],[-73.8964,40.8634],[-73.8917,40.8694],[-73.8889,40.8713],[-73.8877,40.8726],[-73.8854,40.8764],[-73.8845,40.8768],[-73.8834,40.8767],[-73.8751,40.873]],[[-73.9789,40.6882],[-73.9783,40.6875],[-73.978,40.6848],[-73.9839,40.676],[-73.9926,40.6656],[-74.0054,40.6531],[-74.005,40.6527],[-73.9932,40.6456],[-73.9927,40.645],[-73.9929,40.6445],[-73.9942,40.6432],[-73.9944,40.6397],[-73.9954,40.6319],[-74.0018,40.6093],[-74.0016,40.607],[-74.0009,40.6063],[-73.9853,40.5967],[-73.9834,40.5872],[-73.9819,40.5859],[-73.9809,40.5841],[-73.981,40.5822],[-73.9815,40.5805],[-73.9811,40.5774]]]}},{"type":"Feature","properties":{"service":"C"},"geometry":{"type":"MultiLineString","coordinates":[[[-73.9393,40.8417],[-73.9399,40.8392],[-73.94,40.8345],[-73.9437,40.8256]]]}},{"type":"Feature","properties":{"service":"A"},"geometry":{"type":"MultiLineString","coordinates":[[[-73.8095,40.5933],[-73.8093,40.5921],[-73.8096,40.5908],[-73.8105,40.5897],[-73.8119,40.5888],[-73.822,40.5848],[-73.837,40.5806]],[[-73.7545,40.6046],[-73.7597,40.6017],[-73.763,40.5986],[-73.7706,40.594],[-73.7723,40.5934],[-73.7839,40.5922],[-73.7903,40.5924],[-73.7952,40.5912],[-73.8034,40.5902],[-73.8052,40.5905],[-73.8077,40.5912],[-73.8088,40.5921],[-73.8095,40.5933]],[[-73.8415,40.6809],[-73.8403,40.6806],[-73.8391,40.6785],[-73.8287,40.657],[-73.8162,40.6091],[-73.8095,40.5933]],[[-73.8245,40.6862],[-73.8291,40.6856],[-73.8339,40.6837],[-73.8375,40.6818],[-73.8415,40.6809]],[[-73.9188,40.8685],[-73.927,40.8657],[-73.9305,40.8637],[-73.9322,40.8621],[-73.9366,40.8558],[-73.9402,40.8463],[-73.9401,40.8458],[-73.9391,40.8448],[-73.9389,40.8443],[-73.9399,40.8393],[-73.9401,40.8371],[-73.94,40.8345],[-73.9437,40.8256]]]}}]}